IRIDIUM 171             
1 43929U 19002H   23232.63377861  .00000087  00000+0  23948-4 0  9996
2 43929  86.3933  64.8835 0002023  85.0157 275.1269 14.34217874241109
IRIDIUM 170             
1 43930U 19002J   23232.61927730  .00000400  00000+0  59585-4 0  9997
2 43930  86.6053  64.7542 0002442  90.2342 269.9155 14.72250692247489
IRIDIUM 167             
1 43931U 19002K   23232.48789971  .00000087  00000+0  23859-4 0  9992
2 43931  86.3923  64.7659 0002099  85.3784 274.7652 14.34218235241086
IRIDIUM 181             
1 56726U 23068S   23232.71864167  .00000405  00000+0  11385-3 0  9996
2 56726  86.8601 103.8182 0003428  69.2899 290.8669 14.43575514 13643
IRIDIUM 177             
1 56727U 23068T   23232.65435244  .00001441  00000+0  18615-3 0  9994
2 56727  86.1946  98.5316 0002095  80.6067 279.5391 14.80222779 13774
IRIDIUM 174             
1 56728U 23068U   23232.71651517  .00001458  00000+0  18846-3 0  9999
2 56728  86.1953  98.5813 0002204  89.0065 271.1409 14.80225329 13781
IRIDIUM 178             
1 56729U 23068V   23232.16979915  .00001478  00000+0  19110-3 0  9991
2 56729  86.5754 101.9977 0002169  86.7971 273.3498 14.80218227 13708
IRIDIUM 179             
1 56730U 23068W   23232.16438238  .00001501  00000+0  19414-3 0  9995
2 56730  86.6764 102.3323 0002189  83.8193 276.3278 14.80222582 13706
